[{"OBJECT_NAME":"STARLINK-36118","OBJECT_ID":"2025-293G","EPOCH":"2026-03-09T18:52:55.578432","MEAN_MOTION":14.9831791,"ECCENTRICITY":0.00039551,"INCLINATION":70.0019,"RA_OF_ASC_NODE":94.1613,"ARG_OF_PERICENTER":270.0357,"MEAN_ANOMALY":90.0349,"EPHEMERIS_TYPE":0,"CLASSIFICATION_TYPE":"U","NORAD_CAT_ID":67009,"ELEMENT_SET_NO":999,"REV_AT_EPOCH":1490,"BSTAR":0.00042754978,"MEAN_MOTION_DOT":5.011e-5,"MEAN_MOTION_DDOT":0},{"OBJECT_NAME":"CZ-6A DEB","OBJECT_ID":"2024-140HT","EPOCH":"2026-03-09T14:47:18.537792","MEAN_MOTION":14.73340782,"ECCENTRICITY":0.0120127,"INCLINATION":88.9844,"RA_OF_ASC_NODE":279.929,"ARG_OF_PERICENTER":188.2272,"MEAN_ANOMALY":171.6982,"EPHEMERIS_TYPE":0,"CLASSIFICATION_TYPE":"U","NORAD_CAT_ID":60840,"ELEMENT_SET_NO":999,"REV_AT_EPOCH":8412,"BSTAR":0.0011992,"MEAN_MOTION_DOT":8.732e-5,"MEAN_MOTION_DDOT":0}]
